ORBCOMM FM24            
1 25478U 98053D   25362.22850781  .00001490  00000+0  52718-3 0  9991
2 25478  45.0083  68.6732 0002296 180.8595 179.2250 14.38696578425380
ORBCOMM FM25            
1 25479U 98053E   25362.55110413  .00001647  00000+0  57820-3 0  9992
2 25479  45.0074  65.4434 0004538 167.4877 192.6085 14.38665900425728
ORBCOMM FM28            
1 25482U 98053H   25362.27269535  .00001357  00000+0  48295-3 0  9999
2 25482  45.0065   4.1556 0005219 220.0050 140.0414 14.38823852426303
ORBCOMM FM30            
1 25980U 99065A   25362.73240745  .00000930  00000+0  35257-3 0  9999
2 25980  45.0306 248.5447 0006359 274.0250  85.9872 14.37796657362444
ORBCOMM FM32            
1 25982U 99065C   25362.75064853  .00001004  00000+0  38461-3 0  9990
2 25982  45.0152 259.7876 0006713 295.1933  64.8219 14.36783063362572
